0 COSMOS 839 DEB
1 10443U 76067U   13281.07394149  .00000088  00000-0  37966-3 0   463
2 10443 065.8130 295.9838 0736755 258.0491 125.0544 12.46398268692572
0 COSMOS 839 DEB
1 10443U 76067U   13283.65937656  .00000082  00000-0  36484-3 0   474
2 10443 065.8127 290.8433 0736682 257.0525 205.9735 12.46399220692893
0 COSMOS 839 DEB
1 10443U 76067U   13285.96804831  .00000033  00000-0  23644-3 0   489
2 10443 065.8127 286.2533 0736583 256.1602 125.0567 12.46400388693185
0 COSMOS 839 DEB
1 10443U 76067U   13287.97433709  .00000013  00000-0  18621-3 0   492
2 10443 065.8128 282.2642 0736512 255.3845 127.3432 12.46401330693437
0 COSMOS 839 DEB
1 10443U 76067U   13290.41236806 -.00000038  00000-0  52819-4 0   502
2 10443 065.8131 277.4169 0736395 254.4414 266.8821 12.46401776693730
0 COSMOS 839 DEB
1 10443U 76067U   13292.94903473 -.00000062  00000-0 -10113-4 0   513
2 10443 065.8133 272.3738 0736226 253.4631 129.0039 12.46402005694054
0 COSMOS 839 DEB
1 10443U 76067U   13294.95508377 -.00000045  00000-0  34111-4 0   525
2 10443 065.8132 268.3858 0736172 252.6831 130.2321 12.46401997694309
